[{"OBJECT_NAME":"SHIYAN-6 01 (SY-6 01)","OBJECT_ID":"2018-094B","EPOCH":"2026-03-09T23:04:36.967872","MEAN_MOTION":15.28649156,"ECCENTRICITY":0.00144834,"INCLINATION":97.3669,"RA_OF_ASC_NODE":84.0964,"ARG_OF_PERICENTER":135.6758,"MEAN_ANOMALY":224.5644,"EPHEMERIS_TYPE":0,"CLASSIFICATION_TYPE":"U","NORAD_CAT_ID":43711,"ELEMENT_SET_NO":999,"REV_AT_EPOCH":40632,"BSTAR":0.00024768444,"MEAN_MOTION_DOT":6.847e-5,"MEAN_MOTION_DDOT":0},{"OBJECT_NAME":"STARLINK-30882","OBJECT_ID":"2023-178F","EPOCH":"2026-03-09T04:23:59.133120","MEAN_MOTION":15.30193601,"ECCENTRICITY":0.00010164,"INCLINATION":53.1606,"RA_OF_ASC_NODE":3.4445,"ARG_OF_PERICENTER":69.5386,"MEAN_ANOMALY":290.5724,"EPHEMERIS_TYPE":0,"CLASSIFICATION_TYPE":"U","NORAD_CAT_ID":58379,"ELEMENT_SET_NO":999,"REV_AT_EPOCH":12981,"BSTAR":4.1421836e-5,"MEAN_MOTION_DOT":8.68e-6,"MEAN_MOTION_DDOT":0}]
